[{"OBJECT_NAME":"ONEWEB-0159","OBJECT_ID":"2021-025W","EPOCH":"2026-05-06T14:21:05.173920","MEAN_MOTION":13.13473595,"ECCENTRICITY":0.0001482,"INCLINATION":87.8962,"RA_OF_ASC_NODE":328.497,"ARG_OF_PERICENTER":85.9446,"MEAN_ANOMALY":274.1852,"EPHEMERIS_TYPE":0,"CLASSIFICATION_TYPE":"U","NORAD_CAT_ID":48062,"ELEMENT_SET_NO":999,"REV_AT_EPOCH":24814,"BSTAR":-0.00050813,"MEAN_MOTION_DOT":-1.73e-06,"MEAN_MOTION_DDOT":0.0},{"OBJECT_NAME":"ONEWEB-0164","OBJECT_ID":"2021-025X","EPOCH":"2026-05-06T06:35:29.767776","MEAN_MOTION":13.13471072,"ECCENTRICITY":0.0001803,"INCLINATION":87.8965,"RA_OF_ASC_NODE":328.5675,"ARG_OF_PERICENTER":85.2745,"MEAN_ANOMALY":274.859,"EPHEMERIS_TYPE":0,"CLASSIFICATION_TYPE":"U","NORAD_CAT_ID":48063,"ELEMENT_SET_NO":999,"REV_AT_EPOCH":24808,"BSTAR":-0.00078309,"MEAN_MOTION_DOT":-2.73e-06,"MEAN_MOTION_DDOT":0.0},{"OBJECT_NAME":"ONEWEB-0167","OBJECT_ID":"2021-025Y","EPOCH":"2026-05-06T07:15:43.845120","MEAN_MOTION":13.1347049,"ECCENTRICITY":0.0001451,"INCLINATION":87.895,"RA_OF_ASC_NODE":328.5762,"ARG_OF_PERICENTER":66.4343,"MEAN_ANOMALY":293.6939,"EPHEMERIS_TYPE":0,"CLASSIFICATION_TYPE":"U","NORAD_CAT_ID":48064,"ELEMENT_SET_NO":999,"REV_AT_EPOCH":24807,"BSTAR":0.00029160000000000004,"MEAN_MOTION_DOT":1.19e-06,"MEAN_MOTION_DDOT":0.0},{"OBJECT_NAME":"ONEWEB-0166","OBJECT_ID":"2021-025Z","EPOCH":"2026-05-06T07:48:37.353312","MEAN_MOTION":13.13468588,"ECCENTRICITY":0.0001655,"INCLINATION":87.8963,"RA_OF_ASC_NODE":328.539,"ARG_OF_PERICENTER":93.0271,"MEAN_ANOMALY":267.1047,"EPHEMERIS_TYPE":0,"CLASSIFICATION_TYPE":"U","NORAD_CAT_ID":48065,"ELEMENT_SET_NO":999,"REV_AT_EPOCH":24815,"BSTAR":0.00061009,"MEAN_MOTION_DOT":2.36e-06,"MEAN_MOTION_DDOT":0.0},{"OBJECT_NAME":"ONEWEB-0151","OBJECT_ID":"2021-025AA","EPOCH":"2026-05-06T06:01:21.942624","MEAN_MOTION":13.13470641,"ECCENTRICITY":0.0001711,"INCLINATION":87.8951,"RA_OF_ASC_NODE":328.5752,"ARG_OF_PERICENTER":82.3427,"MEAN_ANOMALY":277.7897,"EPHEMERIS_TYPE":0,"CLASSIFICATION_TYPE":"U","NORAD_CAT_ID":48066,"ELEMENT_SET_NO":999,"REV_AT_EPOCH":24808,"BSTAR":0.00064391,"MEAN_MOTION_DOT":2.48e-06,"MEAN_MOTION_DDOT":0.0},{"OBJECT_NAME":"ONEWEB-0170","OBJECT_ID":"2021-025AB","EPOCH":"2026-05-06T06:13:33.633120","MEAN_MOTION":13.13470592,"ECCENTRICITY":0.0002028,"INCLINATION":87.8948,"RA_OF_ASC_NODE":328.5742,"ARG_OF_PERICENTER":73.005,"MEAN_ANOMALY":287.1301,"EPHEMERIS_TYPE":0,"CLASSIFICATION_TYPE":"U","NORAD_CAT_ID":48067,"ELEMENT_SET_NO":999,"REV_AT_EPOCH":24804,"BSTAR":0.00056158,"MEAN_MOTION_DOT":2.18e-06,"MEAN_MOTION_DDOT":0.0},{"OBJECT_NAME":"ONEWEB-0168","OBJECT_ID":"2021-025AC","EPOCH":"2026-05-06T07:41:19.030560","MEAN_MOTION":13.13471131,"ECCENTRICITY":0.0001573,"INCLINATION":87.8959,"RA_OF_ASC_NODE":328.5591,"ARG_OF_PERICENTER":88.8482,"MEAN_ANOMALY":271.2828,"EPHEMERIS_TYPE":0,"CLASSIFICATION_TYPE":"U","NORAD_CAT_ID":48068,"ELEMENT_SET_NO":999,"REV_AT_EPOCH":24806,"BSTAR":0.00083011,"MEAN_MOTION_DOT":3.16e-06,"MEAN_MOTION_DDOT":0.0},{"OBJECT_NAME":"ONEWEB-0173","OBJECT_ID":"2021-025AD","EPOCH":"2026-05-06T12:58:12.941184","MEAN_MOTION":13.13471284,"ECCENTRICITY":0.0001388,"INCLINATION":87.8955,"RA_OF_ASC_NODE":328.5195,"ARG_OF_PERICENTER":80.7901,"MEAN_ANOMALY":279.3385,"EPHEMERIS_TYPE":0,"CLASSIFICATION_TYPE":"U","NORAD_CAT_ID":48069,"ELEMENT_SET_NO":999,"REV_AT_EPOCH":24833,"BSTAR":0.0007447500000000001,"MEAN_MOTION_DOT":2.85e-06,"MEAN_MOTION_DDOT":0.0},{"OBJECT_NAME":"ONEWEB-0171","OBJECT_ID":"2021-025AE","EPOCH":"2026-05-06T06:33:02.604384","MEAN_MOTION":13.13472025,"ECCENTRICITY":0.00017,"INCLINATION":87.8956,"RA_OF_ASC_NODE":328.5809,"ARG_OF_PERICENTER":82.1324,"MEAN_ANOMALY":277.9998,"EPHEMERIS_TYPE":0,"CLASSIFICATION_TYPE":"U","NORAD_CAT_ID":48070,"ELEMENT_SET_NO":999,"REV_AT_EPOCH":24811,"BSTAR":-0.00074024,"MEAN_MOTION_DOT":-2.58e-06,"MEAN_MOTION_DDOT":0.0},{"OBJECT_NAME":"ONEWEB-0172","OBJECT_ID":"2021-025AF","EPOCH":"2026-05-06T06:03:47.599200","MEAN_MOTION":13.13469537,"ECCENTRICITY":0.0001636,"INCLINATION":87.8951,"RA_OF_ASC_NODE":328.5736,"ARG_OF_PERICENTER":82.2827,"MEAN_ANOMALY":277.8488,"EPHEMERIS_TYPE":0,"CLASSIFICATION_TYPE":"U","NORAD_CAT_ID":48071,"ELEMENT_SET_NO":999,"REV_AT_EPOCH":24900,"BSTAR":0.00059117,"MEAN_MOTION_DOT":2.29e-06,"MEAN_MOTION_DDOT":0.0},{"OBJECT_NAME":"ONEWEB-0174","OBJECT_ID":"2021-025AG","EPOCH":"2026-05-06T01:57:35.606304","MEAN_MOTION":13.13471538,"ECCENTRICITY":0.0001674,"INCLINATION":87.8948,"RA_OF_ASC_NODE":328.6082,"ARG_OF_PERICENTER":92.9786,"MEAN_ANOMALY":267.1534,"EPHEMERIS_TYPE":0,"CLASSIFICATION_TYPE":"U","NORAD_CAT_ID":48072,"ELEMENT_SET_NO":999,"REV_AT_EPOCH":24830,"BSTAR":0.0010082000000000001,"MEAN_MOTION_DOT":3.81e-06,"MEAN_MOTION_DDOT":0.0},{"OBJECT_NAME":"ONEWEB-0175","OBJECT_ID":"2021-025AH","EPOCH":"2026-05-06T13:39:38.830752","MEAN_MOTION":13.13470314,"ECCENTRICITY":0.0001812,"INCLINATION":87.8961,"RA_OF_ASC_NODE":328.4922,"ARG_OF_PERICENTER":76.1104,"MEAN_ANOMALY":284.0227,"EPHEMERIS_TYPE":0,"CLASSIFICATION_TYPE":"U","NORAD_CAT_ID":48073,"ELEMENT_SET_NO":999,"REV_AT_EPOCH":24802,"BSTAR":2.8263e-06,"MEAN_MOTION_DOT":1.4e-07,"MEAN_MOTION_DDOT":0.0},{"OBJECT_NAME":"ONEWEB-0177","OBJECT_ID":"2021-025AJ","EPOCH":"2026-05-06T06:37:54.120576","MEAN_MOTION":13.13469297,"ECCENTRICITY":0.0001681,"INCLINATION":87.8951,"RA_OF_ASC_NODE":328.5712,"ARG_OF_PERICENTER":91.9409,"MEAN_ANOMALY":268.1913,"EPHEMERIS_TYPE":0,"CLASSIFICATION_TYPE":"U","NORAD_CAT_ID":48074,"ELEMENT_SET_NO":999,"REV_AT_EPOCH":24817,"BSTAR":-0.0013558,"MEAN_MOTION_DOT":-4.82e-06,"MEAN_MOTION_DDOT":0.0},{"OBJECT_NAME":"ONEWEB-0178","OBJECT_ID":"2021-025AK","EPOCH":"2026-05-06T14:23:44.384064","MEAN_MOTION":13.13470441,"ECCENTRICITY":0.0001606,"INCLINATION":87.894,"RA_OF_ASC_NODE":328.5245,"ARG_OF_PERICENTER":79.9021,"MEAN_ANOMALY":280.2289,"EPHEMERIS_TYPE":0,"CLASSIFICATION_TYPE":"U","NORAD_CAT_ID":48075,"ELEMENT_SET_NO":999,"REV_AT_EPOCH":24826,"BSTAR":-0.00050532,"MEAN_MOTION_DOT":-1.72e-06,"MEAN_MOTION_DDOT":0.0},{"OBJECT_NAME":"ONEWEB-0108","OBJECT_ID":"2021-025AL","EPOCH":"2026-05-06T06:06:15.110784","MEAN_MOTION":13.13470817,"ECCENTRICITY":0.0001916,"INCLINATION":87.8957,"RA_OF_ASC_NODE":328.5645,"ARG_OF_PERICENTER":91.9273,"MEAN_ANOMALY":268.2075,"EPHEMERIS_TYPE":0,"CLASSIFICATION_TYPE":"U","NORAD_CAT_ID":48076,"ELEMENT_SET_NO":999,"REV_AT_EPOCH":24814,"BSTAR":0.0005611699999999999,"MEAN_MOTION_DOT":2.18e-06,"MEAN_MOTION_DDOT":0.0},{"OBJECT_NAME":"ONEWEB-0169","OBJECT_ID":"2021-025AM","EPOCH":"2026-05-06T12:21:39.526848","MEAN_MOTION":13.13471704,"ECCENTRICITY":0.0001684,"INCLINATION":87.8949,"RA_OF_ASC_NODE":328.5242,"ARG_OF_PERICENTER":91.1081,"MEAN_ANOMALY":269.0241,"EPHEMERIS_TYPE":0,"CLASSIFICATION_TYPE":"U","NORAD_CAT_ID":48077,"ELEMENT_SET_NO":999,"REV_AT_EPOCH":24683,"BSTAR":-0.0008587,"MEAN_MOTION_DOT":-3.01e-06,"MEAN_MOTION_DDOT":0.0}]