ONEWEB-0159             
1 48062U 21025W   26126.59797655 -.00000173  00000+0 -50813-3 0  9992
2 48062  87.8962 328.4970 0001482  85.9446 274.1852 13.13473595248145
ONEWEB-0164             
1 48063U 21025X   26126.27465009 -.00000273  00000+0 -78309-3 0  9994
2 48063  87.8965 328.5675 0001803  85.2745 274.8590 13.13471072248081
ONEWEB-0167             
1 48064U 21025Y   26126.30259080  .00000119  00000+0  29160-3 0  9997
2 48064  87.8950 328.5762 0001451  66.4343 293.6939 13.13470490248075
ONEWEB-0166             
1 48065U 21025Z   26126.32543233  .00000236  00000+0  61009-3 0  9994
2 48065  87.8963 328.5390 0001655  93.0271 267.1047 13.13468588248159
ONEWEB-0151             
1 48066U 21025AA  26126.25094841  .00000248  00000+0  64391-3 0  9993
2 48066  87.8951 328.5752 0001711  82.3427 277.7897 13.13470641248081
ONEWEB-0170             
1 48067U 21025AB  26126.25941705  .00000218  00000+0  56158-3 0  9993
2 48067  87.8948 328.5742 0002028  73.0050 287.1301 13.13470592248044
ONEWEB-0168             
1 48068U 21025AC  26126.32035915  .00000316  00000+0  83011-3 0  9996
2 48068  87.8959 328.5591 0001573  88.8482 271.2828 13.13471131248066
ONEWEB-0173             
1 48069U 21025AD  26126.54042756  .00000285  00000+0  74475-3 0  9991
2 48069  87.8955 328.5195 0001388  80.7901 279.3385 13.13471284248330
ONEWEB-0171             
1 48070U 21025AE  26126.27294681 -.00000258  00000+0 -74024-3 0  9991
2 48070  87.8956 328.5809 0001700  82.1324 277.9998 13.13472025248112
ONEWEB-0172             
1 48071U 21025AF  26126.25263425  .00000229  00000+0  59117-3 0  9994
2 48071  87.8951 328.5736 0001636  82.2827 277.8488 13.13469537249000
ONEWEB-0174             
1 48072U 21025AG  26126.08166211  .00000381  00000+0  10082-2 0  9997
2 48072  87.8948 328.6082 0001674  92.9786 267.1534 13.13471538248306
ONEWEB-0175             
1 48073U 21025AH  26126.56919943  .00000014  00000+0  28263-5 0  9995
2 48073  87.8961 328.4922 0001812  76.1104 284.0227 13.13470314248022
ONEWEB-0177             
1 48074U 21025AJ  26126.27632084 -.00000482  00000+0 -13558-2 0  9991
2 48074  87.8951 328.5712 0001681  91.9409 268.1913 13.13469297248176
ONEWEB-0178             
1 48075U 21025AK  26126.59981926 -.00000172  00000+0 -50532-3 0  9999
2 48075  87.8940 328.5245 0001606  79.9021 280.2289 13.13470441248263
ONEWEB-0108             
1 48076U 21025AL  26126.25434156  .00000218  00000+0  56117-3 0  9995
2 48076  87.8957 328.5645 0001916  91.9273 268.2075 13.13470817248146
ONEWEB-0169             
1 48077U 21025AM  26126.51504082 -.00000301  00000+0 -85870-3 0  9994
2 48077  87.8949 328.5242 0001684  91.1081 269.0241 13.13471704246836
